ASTRA 1M                
1 33436U 08057A   26178.88137294  .00000132  00000+0  00000+0 0  9999
2 33436   0.3235  82.6353 0004978  27.0977 142.9407  1.00269863 45844
EUTELSAT HOTBIRD 13C    
1 33459U 08065A   26178.86762206 -.00000274  00000+0  00000+0 0  9996
2 33459   2.9769  79.0735 0003522  14.9684  83.9660  1.00272982 47457
EXPRESS-AM44            
1 33595U 09007A   26178.94665534 -.00000081  00000+0  00000+0 0  9995
2 33595   3.4912  78.2697 0004324  10.0295 157.5291  1.00271972 52393
NSS-9                   
1 33749U 09008A   26178.84235656  .00000082  00000+0  00000+0 0  9994
2 33749   1.2887  82.5689 0002465   3.8601 315.8362  1.00270938 63622
TELSTAR 11N             
1 34111U 09009A   26178.94136866  .00000000  00000+0  00000+0 0  9993
2 34111   0.0276  22.8331 0002779  75.5515 119.0044  1.00268974 46353
WGS F2 (USA 204)        
1 34713U 09017A   26178.93229837  .00000079  00000+0  00000+0 0  9996
2 34713   0.0183  12.3069 0000497 120.3227 176.5519  1.00272312 45720
SES-7 (PROTOSTAR 2)     
1 34941U 09027A   26178.94496476 -.00000333  00000+0  00000+0 0  9990
2 34941   0.0395  67.8433 0000304 335.4336 321.1983  1.00271314 62739
MEASAT-3A               
1 35362U 09032A   26178.83793654 -.00000099  00000+0  00000+0 0  9999
2 35362   0.0297 323.8933 0003305 124.1350 289.5793  1.00272135  8133
GOES 14                 
1 35491U 09033A   26178.90434914 -.00000317  00000+0  00000+0 0  9995
2 35491   1.7171  82.9253 0002268  20.2554 273.9638  1.00107821  6695
FM-5                    
1 35493U 09034A   26178.86051537 -.00000188  00000+0  00000+0 0  9995
2 35493   0.0283 286.7938 0000989  62.7837 150.0099  1.00271663 46753
TERRESTAR-1             
1 35496U 09035A   26178.64172100 -.00000050  00000+0  00000+0 0  9993
2 35496   5.1816  48.7913 0002668  42.2093 304.7612  1.00273296 62230
ASIASAT 5               
1 35696U 09042A   26178.98011253 -.00000296  00000+0  00000+0 0  9993
2 35696   0.0158  47.7467 0001641  22.5257 299.1483  1.00272857 61819
JCSAT-12 (JCSAT-RA)     
1 35755U 09044A   26178.90365580 -.00000316  00000+0  00000+0 0  9991
2 35755   0.0123 352.2376 0000243 215.9660 165.1554  1.00270966 61712
OPTUS D3                
1 35756U 09044B   26178.90842249 -.00000133  00000+0  00000+0 0  9991
2 35756   0.8798 268.6227 0003404 192.1142 298.4438  1.00272588 61675
NIMIQ 5                 
1 35873U 09050A   26178.93441301 -.00000245  00000+0  00000+0 0  9999
2 35873   0.0354 276.2244 0003059 170.8153  92.6875  1.00272108 61453
AMAZONAS 2              
1 35942U 09054A   26178.93458634 -.00000249  00000+0  00000+0 0  9991
2 35942   1.8427  82.9247 0003565  16.2689  81.2984  1.00270647 61297
COMSATBW-1              
1 35943U 09054B   26178.98932503  .00000036  00000+0  00000+0 0  9992
2 35943   0.0624 134.3685 0003179 323.2044 237.6832  1.00271793 61419
NSS-12                  
1 36032U 09058A   26178.93229775  .00000083  00000+0  00000+0 0  9993
2 36032   0.0735 276.9248 0005069 148.6027 243.1315  1.00270868 61027
THOR 6                  
1 36033U 09058B   26178.92753183  .00000000  00000+0  00000+0 0  9997
2 36033   0.0136  11.8627 0002150  94.9099 142.3395  1.00269499 61116
INTELSAT 14 (IS-14)     
1 36097U 09064A   26178.86866206 -.00000262  00000+0  00000+0 0  9999
2 36097   0.0141  30.3425 0002706  66.7809  86.5718  1.00272142 60719
EUTELSAT 36B            
1 36101U 09065A   26178.92678291  .00000123  00000+0  00000+0 0  9993
2 36101   0.5177  81.2394 0005852  13.9952 204.9231  1.00273374 60812
INTELSAT 15 (IS-15)     
1 36106U 09067A   26178.60935490 -.00000173  00000+0  00000+0 0  9998
2 36106   0.0154  49.2465 0002565  51.9287 119.0589  1.00271415 41333
WGS F3 (USA 211)        
1 36108U 09068A   26178.61032465  .00000075  00000+0  00000+0 0  9992
2 36108   0.3136  85.7486 0000671 355.9778 283.7194  1.00275477 46691
DIRECTV 12              
1 36131U 09075A   26178.59242464 -.00000092  00000+0  00000+0 0  9995
2 36131   0.0078  82.4238 0000311  15.3948 288.4292  1.00270253 46659
BEIDOU-2 G1             
1 36287U 10001A   26178.90538914 -.00000272  00000+0  00000+0 0  9991
2 36287   4.3184  60.3805 0002263 309.2423  12.8024  1.00273019 60271
SDO                     
1 36395U 10005A   26178.28933591 -.00000095  00000+0  00000+0 0  9999
2 36395  34.6720  86.1888 0001538  47.5663 143.6115  1.00270710 60169
INTELSAT 16 (IS-16)     
1 36397U 10006A   26178.93371968 -.00000233  00000+0  00000+0 0  9992
2 36397   0.0150  41.9552 0002450  68.8092  65.2118  1.00272004 59762
EWS-G2 (GOES 15)        
1 36411U 10008A   26178.93791057  .00000031  00000+0  00000+0 0  9991
2 36411   1.3065  82.6983 0005356  43.1852 191.3426  1.00268108 59747
ECHOSTAR 14             
1 36499U 10010A   26178.71144253  .00000012  00000+0  00000+0 0  9995
2 36499   0.0230 287.5070 0002483 169.0636 316.4684  1.00270897 46652
SES-1                   
1 36516U 10016A   26178.92886633 -.00000103  00000+0  00000+0 0  9991
2 36516   0.0266 307.3337 0002992 144.4743  57.6128  1.00271995 59144
ASTRA 3B                
1 36581U 10021A   26178.88215294  .00000147  00000+0  00000+0 0  9990
2 36581   1.4966  83.4303 0004210  10.3393 163.2982  1.00269016 58973
COMSATBW-2              
1 36582U 10021B   26178.90867175  .00000100  00000+0  00000+0 0  9994
2 36582   0.0452 183.3124 0002635 279.8227 153.2506  1.00268911 59062
