OBJECT_NAME,OBJECT_ID,EPOCH,MEAN_MOTION,ECCENTRICITY,INCLINATION,RA_OF_ASC_NODE,ARG_OF_PERICENTER,MEAN_ANOMALY,EPHEMERIS_TYPE,CLASSIFICATION_TYPE,NORAD_CAT_ID,ELEMENT_SET_NO,REV_AT_EPOCH,BSTAR,MEAN_MOTION_DOT,MEAN_MOTION_DDOT
ASTRA 1M,2008-057A,2026-06-27T21:09:10.622016,1.00269863,.00049783,0.3235,82.6353,27.0977,142.9407,0,U,33436,999,4584,0,.132E-5,0
EUTELSAT HOTBIRD 13C,2008-065A,2026-06-27T20:49:22.545984,1.00272982,.00035227,2.9769,79.0735,14.9684,83.9660,0,U,33459,999,4745,0,-.274E-5,0
EXPRESS-AM44,2009-007A,2026-06-27T22:43:11.021376,1.00271972,.0004324,3.4912,78.2697,10.0295,157.5291,0,U,33595,999,5239,0,-.81E-6,0
NSS-9,2009-008A,2026-06-27T20:12:59.606784,1.00270938,.00024656,1.2887,82.5689,3.8601,315.8362,0,U,33749,999,6362,0,.82E-6,0
TELSTAR 11N,2009-009A,2026-06-27T22:35:34.252224,1.00268974,.00027798,0.0276,22.8331,75.5515,119.0044,0,U,34111,999,4635,0,0,0
WGS F2 (USA 204),2009-017A,2026-06-27T22:22:30.579168,1.00272312,.00004975,0.0183,12.3069,120.3227,176.5519,0,U,34713,999,4572,0,.79E-6,0
SES-7 (PROTOSTAR 2),2009-027A,2026-06-27T22:40:44.955264,1.00271314,.00003049,0.0395,67.8433,335.4336,321.1983,0,U,34941,999,6273,0,-.333E-5,0
MEASAT-3A,2009-032A,2026-06-27T20:06:37.717056,1.00272135,.00033051,0.0297,323.8933,124.1350,289.5793,0,U,35362,999,813,0,-.99E-6,0
GOES 14,2009-033A,2026-06-27T21:42:15.765696,1.00107821,.00022687,1.7171,82.9253,20.2554,273.9638,0,U,35491,999,669,0,-.317E-5,0
FM-5,2009-034A,2026-06-27T20:39:08.527968,1.00271663,.00009895,0.0283,286.7938,62.7837,150.0099,0,U,35493,999,4675,0,-.188E-5,0
TERRESTAR-1,2009-035A,2026-06-27T15:24:04.694400,1.00273296,.00026681,5.1816,48.7913,42.2093,304.7612,0,U,35496,999,6223,0,-.5E-6,0
ASIASAT 5,2009-042A,2026-06-27T23:31:21.722592,1.00272857,.0001641,0.0158,47.7467,22.5257,299.1483,0,U,35696,999,6181,0,-.296E-5,0
JCSAT-12 (JCSAT-RA),2009-044A,2026-06-27T21:41:15.861120,1.00270966,.00002435,0.0123,352.2376,215.9660,165.1554,0,U,35755,999,6171,0,-.316E-5,0
OPTUS D3,2009-044B,2026-06-27T21:48:07.703136,1.00272588,.00034041,0.8798,268.6227,192.1142,298.4438,0,U,35756,999,6167,0,-.133E-5,0
NIMIQ 5,2009-050A,2026-06-27T22:25:33.284064,1.00272108,.00030595,0.0354,276.2244,170.8153,92.6875,0,U,35873,999,6145,0,-.245E-5,0
AMAZONAS 2,2009-054A,2026-06-27T22:25:48.259776,1.00270647,.0003565,1.8427,82.9247,16.2689,81.2984,0,U,35942,999,6129,0,-.249E-5,0
COMSATBW-1,2009-054B,2026-06-27T23:44:37.682592,1.00271793,.00031795,0.0624,134.3685,323.2044,237.6832,0,U,35943,999,6141,0,.36E-6,0
NSS-12,2009-058A,2026-06-27T22:22:30.525600,1.00270868,.00050694,0.0735,276.9248,148.6027,243.1315,0,U,36032,999,6102,0,.83E-6,0
THOR 6,2009-058B,2026-06-27T22:15:38.750112,1.00269499,.00021507,0.0136,11.8627,94.9099,142.3395,0,U,36033,999,6111,0,0,0
INTELSAT 14 (IS-14),2009-064A,2026-06-27T20:50:52.401984,1.00272142,.0002706,0.0141,30.3425,66.7809,86.5718,0,U,36097,999,6071,0,-.262E-5,0
EUTELSAT 36B,2009-065A,2026-06-27T22:14:34.043424,1.00273374,.00058525,0.5177,81.2394,13.9952,204.9231,0,U,36101,999,6081,0,.123E-5,0
INTELSAT 15 (IS-15),2009-067A,2026-06-27T14:37:28.263360,1.00271415,.00025654,0.0154,49.2465,51.9287,119.0589,0,U,36106,999,4133,0,-.173E-5,0
WGS F3 (USA 211),2009-068A,2026-06-27T14:38:52.049760,1.00275477,.00006714,0.3136,85.7486,355.9778,283.7194,0,U,36108,999,4669,0,.75E-6,0
DIRECTV 12,2009-075A,2026-06-27T14:13:05.488896,1.00270253,.00003113,0.0078,82.4238,15.3948,288.4292,0,U,36131,999,4665,0,-.92E-6,0
BEIDOU-2 G1,2010-001A,2026-06-27T21:43:45.621696,1.00273019,.00022632,4.3184,60.3805,309.2423,12.8024,0,U,36287,999,6027,0,-.272E-5,0
SDO,2010-005A,2026-06-27T06:56:38.622624,1.00270710,.00015381,34.6720,86.1888,47.5663,143.6115,0,U,36395,999,6016,0,-.95E-6,0
INTELSAT 16 (IS-16),2010-006A,2026-06-27T22:24:33.380352,1.00272004,.00024507,0.0150,41.9552,68.8092,65.2118,0,U,36397,999,5976,0,-.233E-5,0
EWS-G2 (GOES 15),2010-008A,2026-06-27T22:30:35.473248,1.00268108,.00053569,1.3065,82.6983,43.1852,191.3426,0,U,36411,999,5974,0,.31E-6,0
ECHOSTAR 14,2010-010A,2026-06-27T17:04:28.634592,1.00270897,.00024834,0.0230,287.5070,169.0636,316.4684,0,U,36499,999,4665,0,.12E-6,0
SES-1,2010-016A,2026-06-27T22:17:34.050912,1.00271995,.00029928,0.0266,307.3337,144.4743,57.6128,0,U,36516,999,5914,0,-.103E-5,0
ASTRA 3B,2010-021A,2026-06-27T21:10:18.014016,1.00269016,.00042107,1.4966,83.4303,10.3393,163.2982,0,U,36581,999,5897,0,.147E-5,0
COMSATBW-2,2010-021B,2026-06-27T21:48:29.239200,1.00268911,.00026354,0.0452,183.3124,279.8227,153.2506,0,U,36582,999,5906,0,.1E-5,0
